[{"OBJECT_NAME":"ONEWEB-0290","OBJECT_ID":"2021-075F","EPOCH":"2025-12-21T04:25:05.077920","MEAN_MOTION":13.1764796,"ECCENTRICITY":0.0001453,"INCLINATION":87.9109,"RA_OF_ASC_NODE":41.2361,"ARG_OF_PERICENTER":81.104,"MEAN_ANOMALY":279.0256,"EPHEMERIS_TYPE":0,"CLASSIFICATION_TYPE":"U","NORAD_CAT_ID":49080,"ELEMENT_SET_NO":999,"REV_AT_EPOCH":21017,"BSTAR":0.0001575,"MEAN_MOTION_DOT":7.4e-7,"MEAN_MOTION_DDOT":0},{"OBJECT_NAME":"ONEWEB-0291","OBJECT_ID":"2021-075G","EPOCH":"2025-12-21T02:13:52.631328","MEAN_MOTION":13.1764736,"ECCENTRICITY":0.0001372,"INCLINATION":87.9113,"RA_OF_ASC_NODE":41.2607,"ARG_OF_PERICENTER":108.5878,"MEAN_ANOMALY":251.5402,"EPHEMERIS_TYPE":0,"CLASSIFICATION_TYPE":"U","NORAD_CAT_ID":49081,"ELEMENT_SET_NO":999,"REV_AT_EPOCH":21015,"BSTAR":0.00019101,"MEAN_MOTION_DOT":8.7e-7,"MEAN_MOTION_DDOT":0},{"OBJECT_NAME":"ONEWEB-0293","OBJECT_ID":"2021-075H","EPOCH":"2025-12-21T04:39:40.474080","MEAN_MOTION":13.17647356,"ECCENTRICITY":0.0001582,"INCLINATION":87.9102,"RA_OF_ASC_NODE":41.2607,"ARG_OF_PERICENTER":96.8028,"MEAN_ANOMALY":263.3283,"EPHEMERIS_TYPE":0,"CLASSIFICATION_TYPE":"U","NORAD_CAT_ID":49082,"ELEMENT_SET_NO":999,"REV_AT_EPOCH":21019,"BSTAR":8.1873e-5,"MEAN_MOTION_DOT":4.5e-7,"MEAN_MOTION_DDOT":0},{"OBJECT_NAME":"ONEWEB-0294","OBJECT_ID":"2021-075J","EPOCH":"2025-12-21T03:56:23.048160","MEAN_MOTION":13.12314162,"ECCENTRICITY":0.0001148,"INCLINATION":87.8927,"RA_OF_ASC_NODE":26.0148,"ARG_OF_PERICENTER":72.7074,"MEAN_ANOMALY":287.418,"EPHEMERIS_TYPE":0,"CLASSIFICATION_TYPE":"U","NORAD_CAT_ID":49083,"ELEMENT_SET_NO":999,"REV_AT_EPOCH":21122,"BSTAR":0.0055892,"MEAN_MOTION_DOT":2.02e-5,"MEAN_MOTION_DDOT":0},{"OBJECT_NAME":"ONEWEB-0295","OBJECT_ID":"2021-075K","EPOCH":"2025-12-21T04:38:27.009888","MEAN_MOTION":13.17649282,"ECCENTRICITY":0.0001627,"INCLINATION":87.9099,"RA_OF_ASC_NODE":41.2652,"ARG_OF_PERICENTER":110.6851,"MEAN_ANOMALY":249.4455,"EPHEMERIS_TYPE":0,"CLASSIFICATION_TYPE":"U","NORAD_CAT_ID":49084,"ELEMENT_SET_NO":999,"REV_AT_EPOCH":21015,"BSTAR":0.00022533,"MEAN_MOTION_DOT":1.0e-6,"MEAN_MOTION_DDOT":0},{"OBJECT_NAME":"ONEWEB-0296","OBJECT_ID":"2021-075L","EPOCH":"2025-12-20T03:40:00.000192","MEAN_MOTION":13.12418099,"ECCENTRICITY":0.00014038,"INCLINATION":87.8929,"RA_OF_ASC_NODE":26.2219,"ARG_OF_PERICENTER":105.8195,"MEAN_ANOMALY":254.3088,"EPHEMERIS_TYPE":0,"CLASSIFICATION_TYPE":"U","NORAD_CAT_ID":49085,"ELEMENT_SET_NO":999,"REV_AT_EPOCH":21109,"BSTAR":0.00094326966,"MEAN_MOTION_DOT":3.52e-6,"MEAN_MOTION_DDOT":0},{"OBJECT_NAME":"ONEWEB-0297","OBJECT_ID":"2021-075M","EPOCH":"2025-12-21T00:31:35.639328","MEAN_MOTION":13.12460992,"ECCENTRICITY":0.0001609,"INCLINATION":87.8929,"RA_OF_ASC_NODE":26.0806,"ARG_OF_PERICENTER":95.8798,"MEAN_ANOMALY":264.2514,"EPHEMERIS_TYPE":0,"CLASSIFICATION_TYPE":"U","NORAD_CAT_ID":49086,"ELEMENT_SET_NO":999,"REV_AT_EPOCH":21181,"BSTAR":0.00069147,"MEAN_MOTION_DOT":2.62e-6,"MEAN_MOTION_DDOT":0},{"OBJECT_NAME":"ONEWEB-0298","OBJECT_ID":"2021-075N","EPOCH":"2025-12-21T04:44:42.429120","MEAN_MOTION":13.17655724,"ECCENTRICITY":0.0001928,"INCLINATION":87.9105,"RA_OF_ASC_NODE":41.2608,"ARG_OF_PERICENTER":101.4081,"MEAN_ANOMALY":258.7267,"EPHEMERIS_TYPE":0,"CLASSIFICATION_TYPE":"U","NORAD_CAT_ID":49087,"ELEMENT_SET_NO":999,"REV_AT_EPOCH":21018,"BSTAR":-0.0040707,"MEAN_MOTION_DOT":-1.568e-5,"MEAN_MOTION_DDOT":0},{"OBJECT_NAME":"ONEWEB-0299","OBJECT_ID":"2021-075P","EPOCH":"2025-12-21T04:46:57.739296","MEAN_MOTION":13.17648347,"ECCENTRICITY":0.0001801,"INCLINATION":87.9112,"RA_OF_ASC_NODE":41.2233,"ARG_OF_PERICENTER":106.687,"MEAN_ANOMALY":253.4459,"EPHEMERIS_TYPE":0,"CLASSIFICATION_TYPE":"U","NORAD_CAT_ID":49088,"ELEMENT_SET_NO":999,"REV_AT_EPOCH":21016,"BSTAR":0.00023094,"MEAN_MOTION_DOT":1.03e-6,"MEAN_MOTION_DDOT":0},{"OBJECT_NAME":"ONEWEB-0300","OBJECT_ID":"2021-075Q","EPOCH":"2025-12-21T00:20:33.105120","MEAN_MOTION":13.12395144,"ECCENTRICITY":0.0002096,"INCLINATION":87.8933,"RA_OF_ASC_NODE":26.0423,"ARG_OF_PERICENTER":93.869,"MEAN_ANOMALY":266.2678,"EPHEMERIS_TYPE":0,"CLASSIFICATION_TYPE":"U","NORAD_CAT_ID":49089,"ELEMENT_SET_NO":999,"REV_AT_EPOCH":21183,"BSTAR":0.0010268,"MEAN_MOTION_DOT":3.82e-6,"MEAN_MOTION_DDOT":0},{"OBJECT_NAME":"ONEWEB-0301","OBJECT_ID":"2021-075R","EPOCH":"2025-12-21T03:36:56.854656","MEAN_MOTION":13.12380814,"ECCENTRICITY":0.0002194,"INCLINATION":87.8936,"RA_OF_ASC_NODE":26.0177,"ARG_OF_PERICENTER":95.8372,"MEAN_ANOMALY":264.3006,"EPHEMERIS_TYPE":0,"CLASSIFICATION_TYPE":"U","NORAD_CAT_ID":49090,"ELEMENT_SET_NO":999,"REV_AT_EPOCH":21121,"BSTAR":0.0010242,"MEAN_MOTION_DOT":3.81e-6,"MEAN_MOTION_DDOT":0},{"OBJECT_NAME":"ONEWEB-0302","OBJECT_ID":"2021-075S","EPOCH":"2025-12-21T01:27:40.046688","MEAN_MOTION":13.12458347,"ECCENTRICITY":0.000148,"INCLINATION":87.8935,"RA_OF_ASC_NODE":26.0426,"ARG_OF_PERICENTER":89.8647,"MEAN_ANOMALY":270.2651,"EPHEMERIS_TYPE":0,"CLASSIFICATION_TYPE":"U","NORAD_CAT_ID":49091,"ELEMENT_SET_NO":999,"REV_AT_EPOCH":21118,"BSTAR":-4.2701e-5,"MEAN_MOTION_DOT":-3.0e-8,"MEAN_MOTION_DDOT":0},{"OBJECT_NAME":"ONEWEB-0304","OBJECT_ID":"2021-075T","EPOCH":"2025-12-21T04:10:29.940960","MEAN_MOTION":13.17650529,"ECCENTRICITY":0.0001741,"INCLINATION":87.9109,"RA_OF_ASC_NODE":41.2592,"ARG_OF_PERICENTER":102.8497,"MEAN_ANOMALY":257.2829,"EPHEMERIS_TYPE":0,"CLASSIFICATION_TYPE":"U","NORAD_CAT_ID":49092,"ELEMENT_SET_NO":999,"REV_AT_EPOCH":21013,"BSTAR":8.9084e-5,"MEAN_MOTION_DOT":4.7e-7,"MEAN_MOTION_DDOT":0},{"OBJECT_NAME":"ONEWEB-0305","OBJECT_ID":"2021-075U","EPOCH":"2025-12-20T15:15:20.979072","MEAN_MOTION":13.17647082,"ECCENTRICITY":0.0001776,"INCLINATION":87.9115,"RA_OF_ASC_NODE":41.3439,"ARG_OF_PERICENTER":113.1068,"MEAN_ANOMALY":247.0251,"EPHEMERIS_TYPE":0,"CLASSIFICATION_TYPE":"U","NORAD_CAT_ID":49093,"ELEMENT_SET_NO":999,"REV_AT_EPOCH":21009,"BSTAR":-1.4405e-5,"MEAN_MOTION_DOT":7.0e-8,"MEAN_MOTION_DDOT":0},{"OBJECT_NAME":"ONEWEB-0308","OBJECT_ID":"2021-075V","EPOCH":"2025-12-21T01:17:56.965056","MEAN_MOTION":13.1247751,"ECCENTRICITY":0.0001978,"INCLINATION":87.8928,"RA_OF_ASC_NODE":26.0382,"ARG_OF_PERICENTER":92.252,"MEAN_ANOMALY":267.8835,"EPHEMERIS_TYPE":0,"CLASSIFICATION_TYPE":"U","NORAD_CAT_ID":49094,"ELEMENT_SET_NO":999,"REV_AT_EPOCH":21119,"BSTAR":0.0093416,"MEAN_MOTION_DOT":3.376e-5,"MEAN_MOTION_DDOT":0},{"OBJECT_NAME":"ONEWEB-0309","OBJECT_ID":"2021-075W","EPOCH":"2025-12-21T02:16:18.236064","MEAN_MOTION":13.17648152,"ECCENTRICITY":0.0001356,"INCLINATION":87.9113,"RA_OF_ASC_NODE":41.268,"ARG_OF_PERICENTER":95.2599,"MEAN_ANOMALY":264.8688,"EPHEMERIS_TYPE":0,"CLASSIFICATION_TYPE":"U","NORAD_CAT_ID":49095,"ELEMENT_SET_NO":999,"REV_AT_EPOCH":21012,"BSTAR":0.00027347,"MEAN_MOTION_DOT":1.19e-6,"MEAN_MOTION_DDOT":0},{"OBJECT_NAME":"ONEWEB-0310","OBJECT_ID":"2021-075X","EPOCH":"2025-12-21T01:39:50.263200","MEAN_MOTION":13.12408657,"ECCENTRICITY":0.0001672,"INCLINATION":87.8927,"RA_OF_ASC_NODE":26.0697,"ARG_OF_PERICENTER":94.9249,"MEAN_ANOMALY":265.2071,"EPHEMERIS_TYPE":0,"CLASSIFICATION_TYPE":"U","NORAD_CAT_ID":49096,"ELEMENT_SET_NO":999,"REV_AT_EPOCH":21182,"BSTAR":0.00074573,"MEAN_MOTION_DOT":2.81e-6,"MEAN_MOTION_DDOT":0}]
